[{"OBJECT_NAME":"STARLINK-5977","OBJECT_ID":"2023-078AA","EPOCH":"2026-03-09T21:30:17.415360","MEAN_MOTION":14.98338947,"ECCENTRICITY":0.00031533,"INCLINATION":70.001,"RA_OF_ASC_NODE":343.8401,"ARG_OF_PERICENTER":269.6749,"MEAN_ANOMALY":90.4049,"EPHEMERIS_TYPE":0,"CLASSIFICATION_TYPE":"U","NORAD_CAT_ID":56791,"ELEMENT_SET_NO":999,"REV_AT_EPOCH":15271,"BSTAR":-0.00019998517,"MEAN_MOTION_DOT":-2.479e-5,"MEAN_MOTION_DDOT":0},{"OBJECT_NAME":"GB 1","OBJECT_ID":"1983-056C","EPOCH":"2026-03-09T15:35:32.481600","MEAN_MOTION":13.78372102,"ECCENTRICITY":0.07333204,"INCLINATION":63.3105,"RA_OF_ASC_NODE":168.7083,"ARG_OF_PERICENTER":129.9554,"MEAN_ANOMALY":236.8304,"EPHEMERIS_TYPE":0,"CLASSIFICATION_TYPE":"U","NORAD_CAT_ID":14143,"ELEMENT_SET_NO":999,"REV_AT_EPOCH":33291,"BSTAR":0.00056594387,"MEAN_MOTION_DOT":4.698e-5,"MEAN_MOTION_DDOT":0}]
